$$SOE
2461288.500000000, A.D. 2026-Sep-05 00:00:00.0000, 1.994931791438752E+08, -2.404326319587148E+08, 6.211959873581649E+07,
2461295.500000000, A.D. 2026-Sep-12 00:00:00.0000, 2.081347380986836E+08, -2.330323081298329E+08, 6.510381270311125E+07,
2461302.500000000, A.D. 2026-Sep-19 00:00:00.0000, 2.164655608861693E+08, -2.252840569661237E+08, 6.799082276232557E+07,
2461309.500000000, A.D. 2026-Sep-26 00:00:00.0000, 2.244749608901837E+08, -2.172012757523150E+08, 7.077686917199783E+07,
2461316.500000000, A.D. 2026-Oct-03 00:00:00.0000, 2.321527066960045E+08, -2.087975806674576E+08, 7.345833921838731E+07,
2461323.500000000, A.D. 2026-Oct-10 00:00:00.0000, 2.394890146281016E+08, -2.000867970233381E+08, 7.603176490320455E+07,
2461330.500000000, A.D. 2026-Oct-17 00:00:00.0000, 2.464745417617894E+08, -1.910829507277917E+08, 7.849382077966563E+07,
2461337.500000000, A.D. 2026-Oct-24 00:00:00.0000, 2.531003794802250E+08, -1.818002609167354E+08, 8.084132195226263E+07,
2461344.500000000, A.D. 2026-Oct-31 00:00:00.0000, 2.593580477168630E+08, -1.722531337403938E+08, 8.307122224006267E+07,
2461351.500000000, A.D. 2026-Nov-07 00:00:00.0000, 2.652394902625016E+08, -1.624561571463428E+08, 8.518061249045895E+07,
2461358.500000000, A.D. 2026-Nov-14 00:00:00.0000, 2.707370713802978E+08, -1.524240956916510E+08, 8.716671911198021E+07,
2461365.500000000, A.D. 2026-Nov-21 00:00:00.0000, 2.758435719576328E+08, -1.421718846301031E+08, 8.902690306478074E+07,
2461372.500000000, A.D. 2026-Nov-28 00:00:00.0000, 2.805521842288214E+08, -1.317146262127484E+08, 9.075865916714555E+07,
2461379.500000000, A.D. 2026-Dec-05 00:00:00.0000, 2.848565087155207E+08, -1.210675887836345E+08, 9.235961534086588E+07,
2461386.500000000, A.D. 2026-Dec-12 00:00:00.0000, 2.887505535792932E+08, -1.102462054852070E+08, 9.382753204459405E+07,
2461393.500000000, A.D. 2026-Dec-19 00:00:00.0000, 2.922287345288804E+08, -9.926607249582019E+07, 9.516030208031249E+07,
2461400.500000000, A.D. 2026-Dec-26 00:00:00.0000, 2.952858751671823E+08, -8.814294759733114E+07, 9.635595072583175E+07,
2461407.500000000, A.D. 2027-Jan-02 00:00:00.0000, 2.979172080790688E+08, -7.689274919313030E+07, 9.741263616232552E+07,
2461414.500000000, A.D. 2027-Jan-09 00:00:00.0000, 3.001183768008496E+08, -6.553155568505300E+07, 9.832865019731390E+07,
2461421.500000000, A.D. 2027-Jan-16 00:00:00.0000, 3.018854387295396E+08, -5.407560512800566E+07, 9.910241928998479E+07,
2461428.500000000, A.D. 2027-Jan-23 00:00:00.0000, 3.032148690398002E+08, -4.254129512884639E+07, 9.973250588076399E+07,
2461435.500000000, A.D. 2027-Jan-30 00:00:00.0000, 3.041035658159237E+08, -3.094518296366629E+07, 1.002176100121164E+08,
2461442.500000000, A.D. 2027-Feb-06 00:00:00.0000, 3.045488568390383E+08, -1.930398549606983E+07, 1.005565712342610E+08,
2461449.500000000, A.D. 2027-Feb-13 00:00:00.0000, 3.045485075846656E+08, -7.634577591000162E+06, 1.007483709434761E+08,
2461456.500000000, A.D. 2027-Feb-20 00:00:00.0000, 3.041007280896705E+08, 4.046010271483779E+06, 1.007921353176388E+08,
2461463.500000000, A.D. 2027-Feb-27 00:00:00.0000, 3.032041801041037E+08, 1.572059205083946E+07, 1.006871384678402E+08,
2461470.500000000, A.D. 2027-Mar-06 00:00:00.0000, 3.018579875558261E+08, 2.737182588161708E+07, 1.004328056887727E+08,
2461477.500000000, A.D. 2027-Mar-13 00:00:00.0000, 3.000617487373305E+08, 3.898221563863916E+07, 1.000287171259054E+08,
2461484.500000000, A.D. 2027-Mar-20 00:00:00.0000, 2.978155490956728E+08, 5.053411360029419E+07, 9.947461190024525E+07,
2461491.500000000, A.D. 2027-Mar-27 00:00:00.0000, 2.951199748346480E+08, 6.200972376866164E+07, 9.877039263164675E+07,
2461498.500000000, A.D. 2027-Apr-03 00:00:00.0000, 2.919761275347508E+08, 7.339110591244006E+07, 9.791613034091578E+07,
2461505.500000000, A.D. 2027-Apr-10 00:00:00.0000, 2.883856398498204E+08, 8.466018047624752E+07, 9.691206972820309E+07,
2461512.500000000, A.D. 2027-Apr-17 00:00:00.0000, 2.843506922945820E+08, 9.579873446985842E+07, 9.575863482422116E+07,
2461519.500000000, A.D. 2027-Apr-24 00:00:00.0000, 2.798740311886472E+08, 1.067884284108633E+08, 9.445643500034562E+07,
2461526.500000000, A.D. 2027-May-01 00:00:00.0000, 2.749589880369514E+08, 1.176108044908783E+08, 9.300627130904523E+07,
2461533.500000000, A.D. 2027-May-08 00:00:00.0000, 2.696095006234143E+08, 1.282472968602040E+08, 9.140914317864482E+07,
2461540.500000000, A.D. 2027-May-15 00:00:00.0000, 2.638301342721132E+08, 1.386792451424127E+08, 8.966625566265947E+07,
2461547.500000000, A.D. 2027-May-22 00:00:00.0000, 2.576261016607774E+08, 1.488879087627595E+08, 8.777902716668928E+07,
2461554.500000000, A.D. 2027-May-29 00:00:00.0000, 2.510032844904499E+08, 1.588544807949669E+08, 8.574909721391916E+07,
2461561.500000000, A.D. 2027-Jun-05 00:00:00.0000, 2.439682578178784E+08, 1.685601046298122E+08, 8.357833439707619E+07,
2461568.500000000, A.D. 2027-Jun-12 00:00:00.0000, 2.365283149423712E+08, 1.779858940779173E+08, 8.126884470105335E+07,
2461575.500000000, A.D. 2027-Jun-19 00:00:00.0000, 2.286914923944843E+08, 1.871129561581457E+08, 7.882298010691699E+07,
2461582.500000000, A.D. 2027-Jun-26 00:00:00.0000, 2.204665951573635E+08, 1.959224165045934E+08, 7.624334737953877E+07,
2461589.500000000, A.D. 2027-Jul-03 00:00:00.0000, 2.118632220794526E+08, 2.043954476055589E+08, 7.353281697490299E+07,
2461596.500000000, A.D. 2027-Jul-10 00:00:00.0000, 2.028917913236054E+08, 2.125133000943627E+08, 7.069453201227464E+07,
2461603.500000000, A.D. 2027-Jul-17 00:00:00.0000, 1.935635656788061E+08, 2.202573372606811E+08, 6.773191724700190E+07,
2461610.500000000, A.D. 2027-Jul-24 00:00:00.0000, 1.838906776544037E+08, 2.276090729175220E+08, 6.464868795359217E+07,
2461617.500000000, A.D. 2027-Jul-31 00:00:00.0000, 1.738861544986888E+08, 2.345502130474619E+08, 6.144885861422914E+07,
2461624.500000000, A.D. 2027-Aug-07 00:00:00.0000, 1.635639426364826E+08, 2.410627025518544E+08, 5.813675142236347E+07,
2461631.500000000, A.D. 2027-Aug-14 00:00:00.0000, 1.529389288692062E+08, 2.471287769949248E+08, 5.471700466966063E+07,
2461638.500000000, A.D. 2027-Aug-21 00:00:00.0000, 1.420269585528368E+08, 2.527310161201724E+08, 5.119458055755295E+07,
2461645.500000000, A.D. 2027-Aug-28 00:00:00.0000, 1.308448537675161E+08, 2.578524004673041E+08, 4.757477208334303E+07,
2461652.500000000, A.D. 2027-Sep-04 00:00:00.0000, 1.194104298374994E+08, 2.624763736636845E+08, 4.386320915772478E+07,
2461659.500000000, A.D. 2027-Sep-11 00:00:00.0000, 1.077425082964817E+08, 2.665869097596586E+08, 4.006586385834120E+07,
2461666.500000000, A.D. 2027-Sep-18 00:00:00.0000, 9.586092588701786E+07, 2.701685849440183E+08, 3.618905457416461E+07,
2461673.500000000, A.D. 2027-Sep-25 00:00:00.0000, 8.378653924555986E+07, 2.732066534909506E+08, 3.223944882121000E+07,
2461680.500000000, A.D. 2027-Oct-02 00:00:00.0000, 7.154122473982300E+07, 2.756871278275433E+08, 2.822406452110370E+07,
2461687.500000000, A.D. 2027-Oct-09 00:00:00.0000, 5.914787284637988E+07, 2.775968625022238E+08, 2.415026952621886E+07,
2461694.500000000, A.D. 2027-Oct-16 00:00:00.0000, 4.663037647752313E+07, 2.789236416982186E+08, 2.002577915949027E+07,
2461701.500000000, A.D. 2027-Oct-23 00:00:00.0000, 3.401361285164180E+07, 2.796562698908692E+08, 1.585865151821077E+07,
2461708.500000000, A.D. 2027-Oct-30 00:00:00.0000, 2.132341861513838E+07, 2.797846657645619E+08, 1.165728032975471E+07,
2461715.500000000, A.D. 2027-Nov-06 00:00:00.0000, 8.586556404569380E+06, 2.792999599181291E+08, 7.430385331954584E+06,
2461722.500000000, A.D. 2027-Nov-13 00:00:00.0000, -4.169329750405085E+06, 2.781945935450867E+08, 3.186999969399244E+06,
2461729.500000000, A.D. 2027-Nov-20 00:00:00.0000, -1.691576787578069E+07, 2.764624150370927E+08, -1.063544242690042E+06,
2461736.500000000, A.D. 2027-Nov-27 00:00:00.0000, -2.962351926249352E+07, 2.740987765283450E+08, -5.311636777461320E+06,
2461743.500000000, A.D. 2027-Dec-04 00:00:00.0000, -4.226264988342583E+07, 2.711006302125952E+08, -9.547410481498390E+06,
2461750.500000000, A.D. 2027-Dec-11 00:00:00.0000, -5.480261289759988E+07, 2.674666222547168E+08, -1.376076744382913E+07,
2461757.500000000, A.D. 2027-Dec-18 00:00:00.0000, -6.721234217232886E+07, 2.631971826431949E+08, -1.794140849116956E+07,
2461764.500000000, A.D. 2027-Dec-25 00:00:00.0000, -7.946035672471812E+07, 2.582946095771837E+08, -2.207886636703867E+07,
2461771.500000000, A.D. 2028-Jan-01 00:00:00.0000, -9.151487591810311E+07, 2.527631469230995E+08, -2.616254258771107E+07,
$$EOE